[{"OBJECT_NAME":"IRIDIUM 136","OBJECT_ID":"2017-061H","EPOCH":"2026-03-09T23:21:02.652768","MEAN_MOTION":14.34217428,"ECCENTRICITY":0.00020185,"INCLINATION":86.3917,"RA_OF_ASC_NODE":66.7307,"ARG_OF_PERICENTER":86.502,"MEAN_ANOMALY":273.6407,"EPHEMERIS_TYPE":0,"CLASSIFICATION_TYPE":"U","NORAD_CAT_ID":42962,"ELEMENT_SET_NO":999,"REV_AT_EPOCH":44061,"BSTAR":-6.150317e-6,"MEAN_MOTION_DOT":3.0e-8,"MEAN_MOTION_DDOT":0},{"OBJECT_NAME":"COSMOS 2251 DEB","OBJECT_ID":"1993-036FD","EPOCH":"2026-03-09T15:10:33.305952","MEAN_MOTION":14.35741029,"ECCENTRICITY":0.0023841,"INCLINATION":74.0357,"RA_OF_ASC_NODE":145.6981,"ARG_OF_PERICENTER":207.0532,"MEAN_ANOMALY":152.938,"EPHEMERIS_TYPE":0,"CLASSIFICATION_TYPE":"U","NORAD_CAT_ID":33948,"ELEMENT_SET_NO":999,"REV_AT_EPOCH":89270,"BSTAR":0.00019719,"MEAN_MOTION_DOT":5.46e-6,"MEAN_MOTION_DDOT":0}]
